CCSDS_OMM_VERS = 2.0
CREATION_DATE  = 
ORIGINATOR     = 

OBJECT_NAME    = STARLINK-35821
OBJECT_ID      = 2025-254AA
CENTER_NAME    = EARTH
REF_FRAME      = TEME
TIME_SYSTEM    = UTC
MEAN_ELEMENT_THEORY = SGP/SGP4

EPOCH          = 2025-11-23T20:00:01.999008
MEAN_MOTION    = 15.74208102
ECCENTRICITY   = .0001084
INCLINATION    = 53.1580
RA_OF_ASC_NODE = 8.7080
ARG_OF_PERICENTER = 110.2653
MEAN_ANOMALY   = 298.9259

EPHEMERIS_TYPE = 0
CLASSIFICATION_TYPE = U
NORAD_CAT_ID   = 66372
ELEMENT_SET_NO = 999
REV_AT_EPOCH   = 388
BSTAR          = -.65357E-3
MEAN_MOTION_DOT = -.95349E-3
MEAN_MOTION_DDOT = 0

CCSDS_OMM_VERS = 2.0
CREATION_DATE  = 
ORIGINATOR     = 

OBJECT_NAME    = STARLINK-35809
OBJECT_ID      = 2025-254AB
CENTER_NAME    = EARTH
REF_FRAME      = TEME
TIME_SYSTEM    = UTC
MEAN_ELEMENT_THEORY = SGP/SGP4

EPOCH          = 2025-11-23T20:00:01.999008
MEAN_MOTION    = 15.74198943
ECCENTRICITY   = .0001047
INCLINATION    = 53.1579
RA_OF_ASC_NODE = 8.6991
ARG_OF_PERICENTER = 91.4893
MEAN_ANOMALY   = 321.5358

EPHEMERIS_TYPE = 0
CLASSIFICATION_TYPE = U
NORAD_CAT_ID   = 66373
ELEMENT_SET_NO = 999
REV_AT_EPOCH   = 388
BSTAR          = -.35494E-3
MEAN_MOTION_DOT = -.52311E-3
MEAN_MOTION_DDOT = 0

CCSDS_OMM_VERS = 2.0
CREATION_DATE  = 
ORIGINATOR     = 

OBJECT_NAME    = STARLINK-35831
OBJECT_ID      = 2025-254AC
CENTER_NAME    = EARTH
REF_FRAME      = TEME
TIME_SYSTEM    = UTC
MEAN_ELEMENT_THEORY = SGP/SGP4

EPOCH          = 2025-11-23T20:00:01.999008
MEAN_MOTION    = 15.74219694
ECCENTRICITY   = .0001145
INCLINATION    = 53.1579
RA_OF_ASC_NODE = 8.6949
ARG_OF_PERICENTER = 107.1879
MEAN_ANOMALY   = 307.7526

EPHEMERIS_TYPE = 0
CLASSIFICATION_TYPE = U
NORAD_CAT_ID   = 66374
ELEMENT_SET_NO = 999
REV_AT_EPOCH   = 388
BSTAR          = -.71079E-3
MEAN_MOTION_DOT = -.103594E-2
MEAN_MOTION_DDOT = 0

CCSDS_OMM_VERS = 2.0
CREATION_DATE  = 
ORIGINATOR     = 

OBJECT_NAME    = STARLINK-35826
OBJECT_ID      = 2025-254AD
CENTER_NAME    = EARTH
REF_FRAME      = TEME
TIME_SYSTEM    = UTC
MEAN_ELEMENT_THEORY = SGP/SGP4

EPOCH          = 2025-11-23T20:00:01.999008
MEAN_MOTION    = 15.74160789
ECCENTRICITY   = .0000943
INCLINATION    = 53.1580
RA_OF_ASC_NODE = 8.6911
ARG_OF_PERICENTER = 110.1602
MEAN_ANOMALY   = 306.7082

EPHEMERIS_TYPE = 0
CLASSIFICATION_TYPE = U
NORAD_CAT_ID   = 66375
ELEMENT_SET_NO = 999
REV_AT_EPOCH   = 388
BSTAR          = .27315E-3
MEAN_MOTION_DOT = .39513E-3
MEAN_MOTION_DDOT = 0

CCSDS_OMM_VERS = 2.0
CREATION_DATE  = 
ORIGINATOR     = 

OBJECT_NAME    = SHIYAN-32 01
OBJECT_ID      = 2025-255A
CENTER_NAME    = EARTH
REF_FRAME      = TEME
TIME_SYSTEM    = UTC
MEAN_ELEMENT_THEORY = SGP/SGP4

EPOCH          = 2025-11-23T19:57:13.431744
MEAN_MOTION    = 15.41834165
ECCENTRICITY   = .0013144
INCLINATION    = 52.9977
RA_OF_ASC_NODE = 267.8914
ARG_OF_PERICENTER = 342.9535
MEAN_ANOMALY   = 17.1026

EPHEMERIS_TYPE = 0
CLASSIFICATION_TYPE = U
NORAD_CAT_ID   = 66376
ELEMENT_SET_NO = 999
REV_AT_EPOCH   = 243
BSTAR          = .45205E-3
MEAN_MOTION_DOT = .19149E-3
MEAN_MOTION_DDOT = 0

CCSDS_OMM_VERS = 2.0
CREATION_DATE  = 
ORIGINATOR     = 

OBJECT_NAME    = CZ-11 DEB
OBJECT_ID      = 2025-255B
CENTER_NAME    = EARTH
REF_FRAME      = TEME
TIME_SYSTEM    = UTC
MEAN_ELEMENT_THEORY = SGP/SGP4

EPOCH          = 2025-11-23T18:16:16.044384
MEAN_MOTION    = 15.42689376
ECCENTRICITY   = .0014168
INCLINATION    = 52.9978
RA_OF_ASC_NODE = 268.1660
ARG_OF_PERICENTER = 340.5079
MEAN_ANOMALY   = 19.5382

EPHEMERIS_TYPE = 0
CLASSIFICATION_TYPE = U
NORAD_CAT_ID   = 66377
ELEMENT_SET_NO = 999
REV_AT_EPOCH   = 228
BSTAR          = .84913E-3
MEAN_MOTION_DOT = .37511E-3
MEAN_MOTION_DDOT = 0

CCSDS_OMM_VERS = 2.0
CREATION_DATE  = 
ORIGINATOR     = 

OBJECT_NAME    = SHIYAN-32 02
OBJECT_ID      = 2025-255C
CENTER_NAME    = EARTH
REF_FRAME      = TEME
TIME_SYSTEM    = UTC
MEAN_ELEMENT_THEORY = SGP/SGP4

EPOCH          = 2025-11-23T19:45:46.054080
MEAN_MOTION    = 15.43008477
ECCENTRICITY   = .0013526
INCLINATION    = 52.9991
RA_OF_ASC_NODE = 267.8426
ARG_OF_PERICENTER = 344.9047
MEAN_ANOMALY   = 15.1552

EPHEMERIS_TYPE = 0
CLASSIFICATION_TYPE = U
NORAD_CAT_ID   = 66378
ELEMENT_SET_NO = 999
REV_AT_EPOCH   = 229
BSTAR          = .83806E-3
MEAN_MOTION_DOT = .37407E-3
MEAN_MOTION_DDOT = 0

CCSDS_OMM_VERS = 2.0
CREATION_DATE  = 
ORIGINATOR     = 

OBJECT_NAME    = SHIYAN-32 03
OBJECT_ID      = 2025-255D
CENTER_NAME    = EARTH
REF_FRAME      = TEME
TIME_SYSTEM    = UTC
MEAN_ELEMENT_THEORY = SGP/SGP4

EPOCH          = 2025-11-23T19:52:13.166688
MEAN_MOTION    = 15.42183878
ECCENTRICITY   = .001514
INCLINATION    = 52.9981
RA_OF_ASC_NODE = 267.8705
ARG_OF_PERICENTER = 343.9135
MEAN_ANOMALY   = 16.1386

EPHEMERIS_TYPE = 0
CLASSIFICATION_TYPE = U
NORAD_CAT_ID   = 66379
ELEMENT_SET_NO = 999
REV_AT_EPOCH   = 231
BSTAR          = .43551E-3
MEAN_MOTION_DOT = .1867E-3
MEAN_MOTION_DDOT = 0

CCSDS_OMM_VERS = 2.0
CREATION_DATE  = 
ORIGINATOR     = 

OBJECT_NAME    = STARLINK-35139
OBJECT_ID      = 2025-257A
CENTER_NAME    = EARTH
REF_FRAME      = TEME
TIME_SYSTEM    = UTC
MEAN_ELEMENT_THEORY = SGP/SGP4

EPOCH          = 2025-11-23T20:00:01.999008
MEAN_MOTION    = 15.73301601
ECCENTRICITY   = .0001048
INCLINATION    = 53.1581
RA_OF_ASC_NODE = 354.7377
ARG_OF_PERICENTER = 120.0724
MEAN_ANOMALY   = 172.7091

EPHEMERIS_TYPE = 0
CLASSIFICATION_TYPE = U
NORAD_CAT_ID   = 66380
ELEMENT_SET_NO = 999
REV_AT_EPOCH   = 339
BSTAR          = -.15708E-1
MEAN_MOTION_DOT = -.1921339E-1
MEAN_MOTION_DDOT = 0

CCSDS_OMM_VERS = 2.0
CREATION_DATE  = 
ORIGINATOR     = 

OBJECT_NAME    = STARLINK-35158
OBJECT_ID      = 2025-257B
CENTER_NAME    = EARTH
REF_FRAME      = TEME
TIME_SYSTEM    = UTC
MEAN_ELEMENT_THEORY = SGP/SGP4

EPOCH          = 2025-11-23T20:00:01.999008
MEAN_MOTION    = 15.73286835
ECCENTRICITY   = .0000535
INCLINATION    = 53.1583
RA_OF_ASC_NODE = 354.7333
ARG_OF_PERICENTER = 103.1526
MEAN_ANOMALY   = 191.5632

EPHEMERIS_TYPE = 0
CLASSIFICATION_TYPE = U
NORAD_CAT_ID   = 66381
ELEMENT_SET_NO = 999
REV_AT_EPOCH   = 345
BSTAR          = -.15651E-1
MEAN_MOTION_DOT = -.19138E-1
MEAN_MOTION_DDOT = 0

CCSDS_OMM_VERS = 2.0
CREATION_DATE  = 
ORIGINATOR     = 

OBJECT_NAME    = STARLINK-35639
OBJECT_ID      = 2025-257C
CENTER_NAME    = EARTH
REF_FRAME      = TEME
TIME_SYSTEM    = UTC
MEAN_ELEMENT_THEORY = SGP/SGP4

EPOCH          = 2025-11-23T20:00:01.999008
MEAN_MOTION    = 15.73301993
ECCENTRICITY   = .000071
INCLINATION    = 53.1582
RA_OF_ASC_NODE = 354.7283
ARG_OF_PERICENTER = 94.1351
MEAN_ANOMALY   = 202.4851

EPHEMERIS_TYPE = 0
CLASSIFICATION_TYPE = U
NORAD_CAT_ID   = 66382
ELEMENT_SET_NO = 999
REV_AT_EPOCH   = 345
BSTAR          = -.15756E-1
MEAN_MOTION_DOT = -.1966096E-1
MEAN_MOTION_DDOT = 0

CCSDS_OMM_VERS = 2.0
CREATION_DATE  = 
ORIGINATOR     = 

OBJECT_NAME    = STARLINK-35690
OBJECT_ID      = 2025-257D
CENTER_NAME    = EARTH
REF_FRAME      = TEME
TIME_SYSTEM    = UTC
MEAN_ELEMENT_THEORY = SGP/SGP4

EPOCH          = 2025-11-23T20:00:01.999008
MEAN_MOTION    = 15.73302246
ECCENTRICITY   = .0001245
INCLINATION    = 53.1585
RA_OF_ASC_NODE = 354.7205
ARG_OF_PERICENTER = 93.9565
MEAN_ANOMALY   = 206.4930

EPHEMERIS_TYPE = 0
CLASSIFICATION_TYPE = U
NORAD_CAT_ID   = 66383
ELEMENT_SET_NO = 999
REV_AT_EPOCH   = 345
BSTAR          = -.15733E-1
MEAN_MOTION_DOT = -.1924164E-1
MEAN_MOTION_DDOT = 0

