STARLINK-35821          
1 66372U 25254AA  25327.83335647 -.00095349  00000+0 -65357-3 0  9990
2 66372  53.1580   8.7080 0001084 110.2653 298.9259 15.74208102  3885
STARLINK-35809          
1 66373U 25254AB  25327.83335647 -.00052311  00000+0 -35494-3 0  9992
2 66373  53.1579   8.6991 0001047  91.4893 321.5358 15.74198943  3883
STARLINK-35831          
1 66374U 25254AC  25327.83335647 -.00103594  00000+0 -71079-3 0  9992
2 66374  53.1579   8.6949 0001145 107.1879 307.7526 15.74219694  3885
STARLINK-35826          
1 66375U 25254AD  25327.83335647  .00039513  00000+0  27315-3 0  9994
2 66375  53.1580   8.6911 0000943 110.1602 306.7082 15.74160789  3886
SHIYAN-32 01            
1 66376U 25255A   25327.83140546  .00019149  00000+0  45205-3 0  9999
2 66376  52.9977 267.8914 0013144 342.9535  17.1026 15.41834165  2434
CZ-11 DEB               
1 66377U 25255B   25327.76129681  .00037511  00000+0  84913-3 0  9991
2 66377  52.9978 268.1660 0014168 340.5079  19.5382 15.42689376  2289
SHIYAN-32 02            
1 66378U 25255C   25327.82344970  .00037407  00000+0  83806-3 0  9993
2 66378  52.9991 267.8426 0013526 344.9047  15.1552 15.43008477  2291
SHIYAN-32 03            
1 66379U 25255D   25327.82793017  .00018670  00000+0  43551-3 0  9998
2 66379  52.9981 267.8705 0015140 343.9135  16.1386 15.42183878  2319
STARLINK-35139          
1 66380U 25257A   25327.83335647 -.01921339  00000+0 -15708-1 0  9993
2 66380  53.1581 354.7377 0001048 120.0724 172.7091 15.73301601  3392
STARLINK-35158          
1 66381U 25257B   25327.83335647 -.01913800  00000+0 -15651-1 0  9995
2 66381  53.1583 354.7333 0000535 103.1526 191.5632 15.73286835  3457
STARLINK-35639          
1 66382U 25257C   25327.83335647 -.01966096  00000+0 -15756-1 0  9997
2 66382  53.1582 354.7283 0000710  94.1351 202.4851 15.73301993  3459
STARLINK-35690          
1 66383U 25257D   25327.83335647 -.01924164  00000+0 -15733-1 0  9993
2 66383  53.1585 354.7205 0001245  93.9565 206.4930 15.73302246  3459
